[
  {
    "Nom": "Adam",
    "Prénom": "Rina",
    "Rue": "Avenue Émile Vandervelde",
    "Numéro": "267",
    "Code_postal": "6200",
    "Localité": "Bouffioulx",
    "Téléphone": "071/39 53 48",
    "GSM": "",
    "Nom du cabinet médical": "",
    "Site web": "",
    "Adresse e-mail (primair)": "rina@dr-adam.be"
  },
  {
    "Nom": "Adriaensen",
    "Prénom": "Muriel",
    "Rue": "Allée des Noisetiers",
    "Numéro": "4",
    "Code_postal": "6280",
    "Localité": "Gerpinnes",
    "Téléphone": "071/21 59 21",
    "GSM": "",
    "Nom du cabinet médical": "Cabinet Grégoire Adriaensen",
    "Site web": "",
    "Adresse e-mail (primair)": "murieladriaensen@yahoo.fr"
  },
  {
    "Nom": "Aktas",
    "Prénom": "Haydar",
    "Rue": "Rue de la Providence",
    "Numéro": "14",
    "Code_postal": "6030",
    "Localité": "Localité",
    "Téléphone": "",
    "GSM": "0475/62 98 37",
    "Nom du cabinet médical": "",
    "Site web": "",
    "Adresse e-mail (primair)": "haydar.aktas2@hotmail.com"
  },
  {
    "Nom": "Alafakis",
    "Prénom": "Grégory",
    "Rue": "Rue Sart-Lez-Moulin",
    "Numéro": "11",
    "Code_postal": "6180",
    "Localité": "Courcelles",
    "Téléphone": "071/45 71 87",
    "GSM": "",
    "Nom du cabinet médical": "",
    "Site web": "",
    "Adresse e-mail (primair)": "galafakis@msn.com"
  },
  {
    "Nom": "Allard",
    "Prénom": "Jean-Paul",
    "Rue": "Rue Pétria",
    "Numéro": "141/2",
    "Code_postal": "6120",
    "Localité": "Nalinnes",
    "Téléphone": "071/21 69 40",
    "GSM": "",
    "Nom du cabinet médical": "",
    "Site web": "",
    "Adresse e-mail (primair)": "jean-paul.allard@fagc.be"
  },
  {
    "Nom": "Allot",
    "Prénom": "Charlotte",
    "Rue": "Route de Philippeville",
    "Numéro": "163",
    "Code_postal": "6010",
    "Localité": "Couillet",
    "Téléphone": "071/15 98 79",
    "GSM": "",
    "Nom du cabinet médical": "",
    "Site web": "",
    "Adresse e-mail (primair)": "allotcharlotte@gmail.com"
  },
  {
    "Nom": "Alvarez",
    "Prénom": "Walter",
    "Rue": "Avenue du Centenaire",
    "Numéro": "2",
    "Code_postal": "6061",
    "Localité": "Montignies-sur-Sambre",
    "Téléphone": "071/41 78 45",
    "GSM": "",
    "Nom du cabinet médical": "",
    "Site web": "",
    "Adresse e-mail (primair)": "alvarez.walt1@gmail.com"
  },
  {
    "Nom": "Ameziane",
    "Prénom": "Sarah",
    "Rue": "Rue de Bomerée",
    "Numéro": "28A",
    "Code_postal": "6032",
    "Localité": "Mont-sur-Marchienne",
    "Téléphone": "071/43 54 95",
    "GSM": "",
    "Nom du cabinet médical": "",
    "Site web": "",
    "Adresse e-mail (primair)": "sarahameziane14@gmail.com"
  },
  {
    "Nom": "Amico",
    "Prénom": "Alessandro",
    "Rue": "Place Albert Ier",
    "Numéro": "5",
    "Code_postal": "6200",
    "Localité": "Bouffioulx",
    "Téléphone": "071/38 35 03",
    "GSM": "",
    "Nom du cabinet médical": "Cabinet Médical de Bouffioulx",
    "Site web": "http://www.cabinetmedicaldebouffioulx.be",
    "Adresse e-mail (primair)": "cabinetmedicaldebouffioulx@gmail.com"
  },
  {
    "Nom": "Amri",
    "Prénom": "Sabrine",
    "Rue": "Boulevard Joseph II",
    "Numéro": "2",
    "Code_postal": "6000",
    "Localité": "Charleroi",
    "Téléphone": "071/37 14 12",
    "GSM": "",
    "Nom du cabinet médical": "Centre Médical Janson",
    "Site web": "",
    "Adresse e-mail (primair)": "dr.sabrine.amri@gmail.com"
  },
  {
    "Nom": "Andre",
    "Prénom": "Willy",
    "Rue": "Rue de l'Entreville",
    "Numéro": "86",
    "Code_postal": "6540",
    "Localité": "Lobbes",
    "Téléphone": "071/59 17 60",
    "GSM": "",
    "Nom du cabinet médical": "",
    "Site web": "",
    "Adresse e-mail (primair)": "willy.andre@skynet.be"
  },
  {
    "Nom": "Andris",
    "Prénom": "Stéphanie",
    "Rue": "Rue des Falaises",
    "Numéro": "11",
    "Code_postal": "5651",
    "Localité": "Laneffe",
    "Téléphone": "",
    "GSM": "0479/23 10 80",
    "Nom du cabinet médical": "",
    "Site web": "",
    "Adresse e-mail (primair)": "stefandris15@gmail.com"
  },
  {
    "Nom": "Angiolillo",
    "Prénom": "David",
    "Rue": "Rue Rouge Chemin",
    "Numéro": "4",
    "Code_postal": "6220",
    "Localité": "Lambusart",
    "Téléphone": "071/81 39 49",
    "GSM": "",
    "Nom du cabinet médical": "",
    "Site web": "",
    "Adresse e-mail (primair)": "david.angiolillo@fagc.be"
  },
  {
    "Nom": "Aslan",
    "Prénom": "Haftane",
    "Rue": "Rue Lambot",
    "Numéro": "142",
    "Code_postal": "6250",
    "Localité": "Aiseau -Presles",
    "Téléphone": "071/43 40 46",
    "GSM": "",
    "Nom du cabinet médical": "",
    "Site web": "",
    "Adresse e-mail (primair)": "haftaneaslan@live.be"
  },
  {
    "Nom": "Asmat",
    "Prénom": "Monazzah",
    "Rue": "Rue du Mambourg",
    "Numéro": "22",
    "Code_postal": "6000",
    "Localité": "Charleroi",
    "Téléphone": "071/31 52 84",
    "GSM": "",
    "Nom du cabinet médical": "",
    "Site web": "",
    "Adresse e-mail (primair)": "dr_asmat_monazzah@hotmail.com"
  },
  {
    "Nom": "Aubry",
    "Prénom": "Thierry",
    "Rue": "Grand Rue",
    "Numéro": "9",
    "Code_postal": "5651",
    "Localité": "Somzée",
    "Téléphone": "071/65 52 73",
    "GSM": "",
    "Nom du cabinet médical": "",
    "Site web": "",
    "Adresse e-mail (primair)": "aubry.thierry@skynet.be"
  },
  {
    "Nom": "Ayoub",
    "Prénom": "Damien",
    "Rue": "Rue Cour Mondez",
    "Numéro": "2",
    "Code_postal": "6210",
    "Localité": "Frasnes-lez-Gosselies",
    "Téléphone": "071/17 79 08",
    "GSM": "",
    "Nom du cabinet médical": "",
    "Site web": "",
    "Adresse e-mail (primair)": "damayoub@hotmail.com"
  },
  {
    "Nom": "Badalamenti",
    "Prénom": "Anthony",
    "Rue": "Rue de Fraire",
    "Numéro": "31",
    "Code_postal": "5650",
    "Localité": "Walcourt",
    "Téléphone": "071/61 29 51",
    "GSM": "",
    "Nom du cabinet médical": "",
    "Site web": "",
    "Adresse e-mail (primair)": "baan6643@gmail.com"
  },
  {
    "Nom": "Baddich",
    "Prénom": "Kadija",
    "Rue": "Avenue Marius Meurée",
    "Numéro": "10",
    "Code_postal": "6001",
    "Localité": "Marcinelle",
    "Téléphone": "071/36 40 78",
    "GSM": "",
    "Nom du cabinet médical": "",
    "Site web": "",
    "Adresse e-mail (primair)": "baddichk@gmail.com"
  },
  {
    "Nom": "Badot",
    "Prénom": "Jean-Louis",
    "Rue": "Rue de Marchienne",
    "Numéro": "96A",
    "Code_postal": "6040",
    "Localité": "Jumet",
    "Téléphone": "071/31 07 39",
    "GSM": "",
    "Nom du cabinet médical": "",
    "Site web": "",
    "Adresse e-mail (primair)": "jean-louis.badot@fagc.be"
  },
  {
    "Nom": "Baivier",
    "Prénom": "François",
    "Rue": "Rue Paul Janson",
    "Numéro": "16",
    "Code_postal": "6061",
    "Localité": "Montignies-sur-Sambre",
    "Téléphone": "071/31 10 67",
    "GSM": "",
    "Nom du cabinet médical": "",
    "Site web": "",
    "Adresse e-mail (primair)": "francois.baivier@skynet.be"
  },
  {
    "Nom": "Baligant",
    "Prénom": "Michel",
    "Rue": "Rue de la Station",
    "Numéro": "100",
    "Code_postal": "6220",
    "Localité": "Fleurus",
    "Téléphone": "071/81 68 18",
    "GSM": "",
    "Nom du cabinet médical": "",
    "Site web": "",
    "Adresse e-mail (primair)": "michel.baligant@gmail.com"
  },
  {
    "Nom": "Bambara",
    "Prénom": "Jerry",
    "Rue": "Rue Dourlet",
    "Numéro": "94",
    "Code_postal": "6000",
    "Localité": "Charleroi",
    "Téléphone": "071/41 53 24",
    "GSM": "",
    "Nom du cabinet médical": "Collectif Santé de Charleroi Nord",
    "Site web": "",
    "Adresse e-mail (primair)": "dr.bambara.jerry@gmail.com"
  },
  {
    "Nom": "Barbason",
    "Prénom": "Emmanuelle",
    "Rue": "Rue de Marchienne",
    "Numéro": "49",
    "Code_postal": "6110",
    "Localité": "Montigny-le-Tilleul",
    "Téléphone": "",
    "GSM": "",
    "Nom du cabinet médical": "",
    "Site web": "",
    "Adresse e-mail (primair)": "barbason.emmanuelle@gmail.com"
  },
  {
    "Nom": "Barbason",
    "Prénom": "Xavier",
    "Rue": "Rue de la Croix",
    "Numéro": "43",
    "Code_postal": "6042",
    "Localité": "Lodelinsart",
    "Téléphone": "071/41 81 90",
    "GSM": "",
    "Nom du cabinet médical": "",
    "Site web": "",
    "Adresse e-mail (primair)": "xavier.barbason@fagc.be"
  },
  {
    "Nom": "Barbeaux",
    "Prénom": "Valentine",
    "Rue": "Rue Sart-les-Moulins",
    "Numéro": "100",
    "Code_postal": "6044",
    "Localité": "Roux",
    "Téléphone": "071/45 85 12",
    "GSM": "",
    "Nom du cabinet médical": "",
    "Site web": "",
    "Adresse e-mail (primair)": "barbeauxvalentine@gmail.com"
  },
  {
    "Nom": "Barboni",
    "Prénom": "Tiziana",
    "Rue": "Avenue des Genêts",
    "Numéro": "53",
    "Code_postal": "6001",
    "Localité": "Marcinelle",
    "Téléphone": "0488 71 01 56",
    "GSM": "",
    "Nom du cabinet médical": "",
    "Site web": "",
    "Adresse e-mail (primair)": "tiziana.barboni@outlook.com"
  },
  {
    "Nom": "Barracho",
    "Prénom": "Carlos",
    "Rue": "Place Albert Ier",
    "Numéro": "5",
    "Code_postal": "6200",
    "Localité": "Bouffioulx",
    "Téléphone": "071/38 35 03",
    "GSM": "",
    "Nom du cabinet médical": "",
    "Site web": "",
    "Adresse e-mail (primair)": "barracho.carlos@gmail.com"
  },
  {
    "Nom": "Bastien",
    "Prénom": "Camille",
    "Rue": "Cour Mondez",
    "Numéro": "2",
    "Code_postal": "6210",
    "Localité": "Frasnes-lez-Gosselies",
    "Téléphone": "071/17 79 08",
    "GSM": "",
    "Nom du cabinet médical": "Maison Médicale de Frasnes",
    "Site web": "",
    "Adresse e-mail (primair)": "camille.bastien@outlook.com"
  },
  {
    "Nom": "BASTIN",
    "Prénom": "France",
    "Rue": "Place du Couvent",
    "Numéro": "10",
    "Code_postal": "7181",
    "Localité": "Arquennes",
    "Téléphone": "0491/60 36 40",
    "GSM": "0491/60 36 40",
    "Nom du cabinet médical": "",
    "Site web": "https://www.doctoranytime.be/d/medecin-generaliste/france-bastin",
    "Adresse e-mail (primair)": "f.bastin@hotmail.be"
  },
  {
    "Nom": "Baudoux",
    "Prénom": "Benjamin",
    "Rue": "Rue du Campinaire",
    "Numéro": "13",
    "Code_postal": "6250",
    "Localité": "Pont-de-Loup",
    "Téléphone": "071/38 95 54",
    "GSM": "",
    "Nom du cabinet médical": "",
    "Site web": "",
    "Adresse e-mail (primair)": "drbdx2@gmail.com"
  },
  {
    "Nom": "Baudoux",
    "Prénom": "Pierre",
    "Rue": "Rue du Campinaire",
    "Numéro": "13",
    "Code_postal": "6250",
    "Localité": "Pont-de-Loup",
    "Téléphone": "071/38 95 54",
    "GSM": "",
    "Nom du cabinet médical": "",
    "Site web": "",
    "Adresse e-mail (primair)": "fa521331@skynet.be"
  },
  {
    "Nom": "Bayot",
    "Prénom": "Marine",
    "Rue": "Rue Paul Pastur",
    "Numéro": "32",
    "Code_postal": "6142",
    "Localité": "Leernes",
    "Téléphone": "071/52 69 97",
    "GSM": "",
    "Nom du cabinet médical": "",
    "Site web": "",
    "Adresse e-mail (primair)": "marine-bayot@hotmail.be"
  },
  {
    "Nom": "Beloy",
    "Prénom": "Stéphane",
    "Rue": "Rue de Marchienne",
    "Numéro": "34",
    "Code_postal": "6040",
    "Localité": "Jumet",
    "Téléphone": "071/35 06 18",
    "GSM": "",
    "Nom du cabinet médical": "",
    "Site web": "",
    "Adresse e-mail (primair)": "stephanebeloy@yahoo.fr"
  },
  {
    "Nom": "Benabderrazik",
    "Prénom": "Amine",
    "Rue": "Chaussée de Charleroi",
    "Numéro": "426",
    "Code_postal": "6220",
    "Localité": "Fleurus",
    "Téléphone": "071/88 99 29",
    "GSM": "",
    "Nom du cabinet médical": "",
    "Site web": "",
    "Adresse e-mail (primair)": "benabderrazikamine@hotmail.com"
  },
  {
    "Nom": "Benali",
    "Prénom": "Elias",
    "Rue": "Grand Rue",
    "Numéro": "157",
    "Code_postal": "6000",
    "Localité": "Charleroi",
    "Téléphone": "071/32 78 88",
    "GSM": "",
    "Nom du cabinet médical": "",
    "Site web": "",
    "Adresse e-mail (primair)": "eliasbenali@hotmail.com"
  },
  {
    "Nom": "Benaïssa",
    "Prénom": "Driss",
    "Rue": "Avenue Dr A. Delvoie",
    "Numéro": "13",
    "Code_postal": "6180",
    "Localité": "Courcelles",
    "Téléphone": "071/45 64 57",
    "GSM": "",
    "Nom du cabinet médical": "",
    "Site web": "",
    "Adresse e-mail (primair)": "drissbenissa@hotmail.com"
  },
  {
    "Nom": "Benderdouche",
    "Prénom": "Iyed",
    "Rue": "Avenue des Champs",
    "Numéro": "47",
    "Code_postal": "6200",
    "Localité": "Châtelineau",
    "Téléphone": "071/32 40 62",
    "GSM": "",
    "Nom du cabinet médical": "",
    "Site web": "",
    "Adresse e-mail (primair)": "benderdouche_iyed@yahoo.fr"
  },
  {
    "Nom": "Benedetti",
    "Prénom": "Laurent",
    "Rue": "Avenue de Philippeville",
    "Numéro": "178",
    "Code_postal": "6010",
    "Localité": "Couillet",
    "Téléphone": "071/34 54 14",
    "GSM": "",
    "Nom du cabinet médical": "",
    "Site web": "",
    "Adresse e-mail (primair)": "laurentbenedetti@msn.com"
  },
  {
    "Nom": "Bergez",
    "Prénom": "Céline",
    "Rue": "Rue de Presles",
    "Numéro": "31",
    "Code_postal": "6250",
    "Localité": "Aiseau-Presles",
    "Téléphone": "071/24 33 25",
    "GSM": "",
    "Nom du cabinet médical": "",
    "Site web": "",
    "Adresse e-mail (primair)": "celinebergez@hotmail.com"
  },
  {
    "Nom": "Bergier",
    "Prénom": "Fabrice",
    "Rue": "Rue de l'Hôpital",
    "Numéro": "6",
    "Code_postal": "6060",
    "Localité": "Gilly",
    "Téléphone": "071/41 44 82",
    "GSM": "",
    "Nom du cabinet médical": "",
    "Site web": "",
    "Adresse e-mail (primair)": "bergier.fabrice@skynet.be"
  },
  {
    "Nom": "Berger",
    "Prénom": "Jean-Luc",
    "Rue": "Rue de Montigny",
    "Numéro": "4",
    "Code_postal": "6060",
    "Localité": "Gilly",
    "Téléphone": "071/41 05 90",
    "GSM": "",
    "Nom du cabinet médical": "",
    "Site web": "",
    "Adresse e-mail (primair)": "jeanluc.berger@live.be"
  },
  {
    "Nom": "Bernard",
    "Prénom": "Didier",
    "Rue": "Chaussée de Bruxelles",
    "Numéro": "115",
    "Code_postal": "6040",
    "Localité": "Jumet",
    "Téléphone": "071/35 23 20",
    "GSM": "",
    "Nom du cabinet médical": "",
    "Site web": "",
    "Adresse e-mail (primair)": "didier.bernard8@skynet.be"
  },
  {
    "Nom": "Bernard",
    "Prénom": "Valérie",
    "Rue": "Rue des Cinq Bonniers",
    "Numéro": "6",
    "Code_postal": "5651",
    "Localité": "Tarcienne",
    "Téléphone": "",
    "GSM": "0475/76 31 93",
    "Nom du cabinet médical": "",
    "Site web": "",
    "Adresse e-mail (primair)": "valerie.bernard65@gmail.com"
  },
  {
    "Nom": "Bernon",
    "Prénom": "Florence",
    "Rue": "Rue des Alliés",
    "Numéro": "5",
    "Code_postal": "6040",
    "Localité": "Jumet",
    "Téléphone": "071/35 58 42",
    "GSM": "",
    "Nom du cabinet médical": "",
    "Site web": "",
    "Adresse e-mail (primair)": "florence.bernon@gmail.com"
  },
  {
    "Nom": "Bert",
    "Prénom": "Thierry",
    "Rue": "Rue Général Fivé",
    "Numéro": "68",
    "Code_postal": "6200",
    "Localité": "Châtelet",
    "Téléphone": "071/37 30 47",
    "GSM": "",
    "Nom du cabinet médical": "",
    "Site web": "",
    "Adresse e-mail (primair)": "bert.thierry@skynet.be"
  },
  {
    "Nom": "Bertrand",
    "Prénom": "Olivier",
    "Rue": "Rue de la Digue",
    "Numéro": "59",
    "Code_postal": "6250",
    "Localité": "Aiseau -Presles",
    "Téléphone": "071/31 47 25",
    "GSM": "",
    "Nom du cabinet médical": "",
    "Site web": "",
    "Adresse e-mail (primair)": "bertrand.olivier@fagc.be"
  },
  {
    "Nom": "Bertrand",
    "Prénom": "Pierre",
    "Rue": "Rue de la Digue",
    "Numéro": "59",
    "Code_postal": "6250",
    "Localité": "Aiseau -Presles",
    "Téléphone": "071/31 47 25",
    "GSM": "",
    "Nom du cabinet médical": "",
    "Site web": "",
    "Adresse e-mail (primair)": "bertrand.pierre@fagc.be"
  },
  {
    "Nom": "Berti",
    "Prénom": "Giuseppe",
    "Rue": "Rue François Dorzée",
    "Numéro": "2",
    "Code_postal": "6180",
    "Localité": "Courcelles",
    "Téléphone": "071/45 78 78",
    "GSM": "",
    "Nom du cabinet médical": "",
    "Site web": "",
    "Adresse e-mail (primair)": "g.berti@fagc.be"
  },
  {
    "Nom": "Bertrix",
    "Prénom": "Virginie",
    "Rue": "Rue Colonel Gilbert",
    "Numéro": "10",
    "Code_postal": "6110",
    "Localité": "Montigny-le-Tilleul",
    "Téléphone": "071/40 43 90",
    "GSM": "",
    "Nom du cabinet médical": "",
    "Site web": "",
    "Adresse e-mail (primair)": "v.bertrix@hotmail.com"
  },
  {
    "Nom": "Bianchi",
    "Prénom": "Cécile",
    "Rue": "Rue des Eclusiers",
    "Numéro": "28",
    "Code_postal": "6030",
    "Localité": "Marchienne-au-Pont",
    "Téléphone": "071/53 34 16",
    "GSM": "",
    "Nom du cabinet médical": "",
    "Site web": "",
    "Adresse e-mail (primair)": "cecile.bianchi@hotmail.com"
  },
  {
    "Nom": "Bibona",
    "Prénom": "Carlo",
    "Rue": "Rue Hamoir",
    "Numéro": "62",
    "Code_postal": "6200",
    "Localité": "Châtelet",
    "Téléphone": "071/37 47 08",
    "GSM": "",
    "Nom du cabinet médical": "",
    "Site web": "",
    "Adresse e-mail (primair)": "carlobibona@hotmail.com"
  },
  {
    "Nom": "Biers",
    "Prénom": "Gaëlle",
    "Rue": "Rue Neuve",
    "Numéro": "4",
    "Code_postal": "6183",
    "Localité": "Trazegnies",
    "Téléphone": "071/84 47 44",
    "GSM": "",
    "Nom du cabinet médical": "",
    "Site web": "",
    "Adresse e-mail (primair)": "gaellebiers@icloud.com"
  },
  {
    "Nom": "Biette",
    "Prénom": "Marc",
    "Rue": "Rue de Sart-les-Moulins",
    "Numéro": "100",
    "Code_postal": "6044",
    "Localité": "Roux",
    "Téléphone": "071/45 85 12",
    "GSM": "",
    "Nom du cabinet médical": "",
    "Site web": "",
    "Adresse e-mail (primair)": "biettemarc@hotmail.com"
  },
  {
    "Nom": "Bijotat",
    "Prénom": "Anne",
    "Rue": "Avenue de Philippeville",
    "Numéro": "200",
    "Code_postal": "6010",
    "Localité": "Couillet",
    "Téléphone": "071/34 63 54",
    "GSM": "",
    "Nom du cabinet médical": "",
    "Site web": "",
    "Adresse e-mail (primair)": "bijotat.anne@skynet.be"
  },
  {
    "Nom": "Bijotat",
    "Prénom": "Eric",
    "Rue": "Rue du Cimetière",
    "Numéro": "29",
    "Code_postal": "6000",
    "Localité": "Charleroi",
    "Téléphone": "071/31 34 94",
    "GSM": "",
    "Nom du cabinet médical": "",
    "Site web": "",
    "Adresse e-mail (primair)": "ericbijotat@hotmail.com"
  },
  {
    "Nom": "Bijotat",
    "Prénom": "Michel",
    "Rue": "Rue Ernest Solvay",
    "Numéro": "22",
    "Code_postal": "6040",
    "Localité": "Jumet",
    "Téléphone": "071/35 60 50",
    "GSM": "",
    "Nom du cabinet médical": "",
    "Site web": "",
    "Adresse e-mail (primair)": "bijotat.michel@hotmail.com"
  },
  {
    "Nom": "Bijotat",
    "Prénom": "Raphaël",
    "Rue": "Rue du Cimetière",
    "Numéro": "29",
    "Code_postal": "6000",
    "Localité": "Charleroi",
    "Téléphone": "071/31 34 94",
    "GSM": "",
    "Nom du cabinet médical": "",
    "Site web": "",
    "Adresse e-mail (primair)": "raphaelbijotat@msn.com"
  },
  {
    "Nom": "Bijotat",
    "Prénom": "Sarah",
    "Rue": "Avenue de Philippeville",
    "Numéro": "200",
    "Code_postal": "6010",
    "Localité": "Couillet",
    "Téléphone": "071/34 63 54",
    "GSM": "",
    "Nom du cabinet médical": "",
    "Site web": "",
    "Adresse e-mail (primair)": "bijotat.sarah@skynet.be"
  },
  {
    "Nom": "Binon",
    "Prénom": "Jean-Michel",
    "Rue": "Chaussée de Nivelles",
    "Numéro": "330",
    "Code_postal": "5140",
    "Localité": "Boignée",
    "Téléphone": "071/84 40 66",
    "GSM": "",
    "Nom du cabinet médical": "",
    "Site web": "",
    "Adresse e-mail (primair)": "jm.binon@fagc.be"
  },
  {
    "Nom": "Biolatto",
    "Prénom": "Christophe",
    "Rue": "Avenue Mascaux",
    "Numéro": "63",
    "Code_postal": "6041",
    "Localité": "Gosselies",
    "Téléphone": "071/35 10 22",
    "GSM": "",
    "Nom du cabinet médical": "",
    "Site web": "",
    "Adresse e-mail (primair)": "biolattochristophe@hotmail.com"
  }
]
